{"type": "FeatureCollection", "features": [ {"type": "Feature", "properties": {"norad_id": 28659, "name": "DIRECTV 8", "group": "intelsat", "lat": 0.043846431341117625, "lon": 73.60345291171222, "alt_km": 35796.924546905975, "timestamp": "2025-12-18T07:01:54.255307+00:00", "meta": {"OBJECT_NAME": "DIRECTV 8", "OBJECT_ID": "2005-019A", "EPOCH": "2025-12-17T17:53:33.808416", "MEAN_MOTION": 1.00272959, "ECCENTRICITY": 0.00028574, "INCLINATION": 0.0186, "RA_OF_ASC_NODE": 331.2522, "ARG_OF_PERICENTER": 304.7129, "MEAN_ANOMALY": 320.0105, "EPHEMERIS_TYPE": 0, "CLASSIFICATION_TYPE": "U", "NORAD_CAT_ID": 28659, "ELEMENT_SET_NO": 999, "REV_AT_EPOCH": 7525, "BSTAR": 0, "MEAN_MOTION_DOT": 2.6e-07, "MEAN_MOTION_DDOT": 0}, "tle": {"line1": "1 28659U 05019A   25351.74553019  .00000026  00000+0  00000+0 0  9991", "line2": "2 28659   0.0186 331.2522 0002857 304.7129 320.0105  1.00272959 75258"}}, "geometry": {"type": "Point", "coordinates": [73.60345291171222, 0.043846431341117625]}}, {"type": "Feature", "properties": {"norad_id": 28702, "name": "GALAXY 28 (G-28)", "group": "intelsat", "lat": 1.117904687090157, "lon": 103.89181594560554, "alt_km": 35798.33830707714, "timestamp": "2025-12-18T07:01:54.255318+00:00", "meta": {"OBJECT_NAME": "GALAXY 28 (G-28)", "OBJECT_ID": "2005-022A", "EPOCH": "2025-12-17T14:37:00.129792", "MEAN_MOTION": 1.00270794, "ECCENTRICITY": 0.00029092, "INCLINATION": 2.8318, "RA_OF_ASC_NODE": 81.2261, "ARG_OF_PERICENTER": 191.3328, "MEAN_ANOMALY": 304.4759, "EPHEMERIS_TYPE": 0, "CLASSIFICATION_TYPE": "U", "NORAD_CAT_ID": 28702, "ELEMENT_SET_NO": 999, "REV_AT_EPOCH": 5015, "BSTAR": 0, "MEAN_MOTION_DOT": -1.65e-06, "MEAN_MOTION_DDOT": 0}, "tle": {"line1": "1 28702U 05022A   25351.60902928 -.00000165  00000+0  00000+0 0  9991", "line2": "2 28702   2.8318  81.2261 0002909 191.3328 304.4759  1.00270794 50153"}}, "geometry": {"type": "Point", "coordinates": [103.89181594560554, 1.117904687090157]}}, {"type": "Feature", "properties": {"norad_id": 29236, "name": "GALAXY 16 (G-16)", "group": "intelsat", "lat": 0.009278935711272505, "lon": 93.61538444566679, "alt_km": 35796.52939332158, "timestamp": "2025-12-18T07:01:54.255330+00:00", "meta": {"OBJECT_NAME": "GALAXY 16 (G-16)", "OBJECT_ID": "2006-023A", "EPOCH": "2025-12-17T21:24:56.576736", "MEAN_MOTION": 1.00271462, "ECCENTRICITY": 0.00024817, "INCLINATION": 0.0343, "RA_OF_ASC_NODE": 214.225, "ARG_OF_PERICENTER": 49.0745, "MEAN_ANOMALY": 45.698, "EPHEMERIS_TYPE": 0, "CLASSIFICATION_TYPE": "U", "NORAD_CAT_ID": 29236, "ELEMENT_SET_NO": 999, "REV_AT_EPOCH": 7115, "BSTAR": 0, "MEAN_MOTION_DOT": -1.02e-06, "MEAN_MOTION_DDOT": 0}, "tle": {"line1": "1 29236U 06023A   25351.89232149 -.00000102  00000+0  00000+0 0  9999", "line2": "2 29236   0.0343 214.2250 0002481  49.0745  45.6980  1.00271462 71153"}}, "geometry": {"type": "Point", "coordinates": [93.61538444566679, 0.009278935711272505]}}, {"type": "Feature", "properties": {"norad_id": 29494, "name": "DIRECTV 9S", "group": "intelsat", "lat": 0.3070882858447285, "lon": 91.40891411206903, "alt_km": 35797.972736110656, "timestamp": "2025-12-18T07:01:54.255342+00:00", "meta": {"OBJECT_NAME": "DIRECTV 9S", "OBJECT_ID": "2006-043A", "EPOCH": "2025-12-17T21:24:19.136160", "MEAN_MOTION": 1.0027187, "ECCENTRICITY": 0.00028192, "INCLINATION": 1.9529, "RA_OF_ASC_NODE": 83.1587, "ARG_OF_PERICENTER": 188.9637, "MEAN_ANOMALY": 34.5087, "EPHEMERIS_TYPE": 0, "CLASSIFICATION_TYPE": "U", "NORAD_CAT_ID": 29494, "ELEMENT_SET_NO": 999, "REV_AT_EPOCH": 4956, "BSTAR": 0, "MEAN_MOTION_DOT": -9e-07, "MEAN_MOTION_DDOT": 0}, "tle": {"line1": "1 29494U 06043A   25351.89188815 -.00000090  00000+0  00000+0 0  9993", "line2": "2 29494   1.9529  83.1587 0002819 188.9637  34.5087  1.00271870 49567"}}, "geometry": {"type": "Point", "coordinates": [91.40891411206903, 0.3070882858447285]}}, {"type": "Feature", "properties": {"norad_id": 31307, "name": "GALAXY 17 (G-17)", "group": "intelsat", "lat": 1.1015436948497737, "lon": 107.59193222399024, "alt_km": 35804.603099234235, "timestamp": "2025-12-18T07:01:54.255354+00:00", "meta": {"OBJECT_NAME": "GALAXY 17 (G-17)", "OBJECT_ID": "2007-016B", "EPOCH": "2025-12-17T12:55:17.368608", "MEAN_MOTION": 1.00271938, "ECCENTRICITY": 0.00055172, "INCLINATION": 2.5117, "RA_OF_ASC_NODE": 82.2321, "ARG_OF_PERICENTER": 168.2005, "MEAN_ANOMALY": 304.83, "EPHEMERIS_TYPE": 0, "CLASSIFICATION_TYPE": "U", "NORAD_CAT_ID": 31307, "ELEMENT_SET_NO": 999, "REV_AT_EPOCH": 6798, "BSTAR": 0, "MEAN_MOTION_DOT": -1.84e-06, "MEAN_MOTION_DDOT": 0}, "tle": {"line1": "1 31307U 07016B   25351.53839547 -.00000184  00000+0  00000+0 0  9990", "line2": "2 31307   2.5117  82.2321 0005517 168.2005 304.8300  1.00271938 67989"}}, "geometry": {"type": "Point", "coordinates": [107.59193222399024, 1.1015436948497737]}}, {"type": "Feature", "properties": {"norad_id": 31862, "name": "DIRECTV 10", "group": "intelsat", "lat": -0.005799653440663775, "lon": 89.80869246748289, "alt_km": 35787.4974208591, "timestamp": "2025-12-18T07:01:54.255365+00:00", "meta": {"OBJECT_NAME": "DIRECTV 10", "OBJECT_ID": "2007-032A", "EPOCH": "2025-12-17T21:23:49.183872", "MEAN_MOTION": 1.00269363, "ECCENTRICITY": 3.433e-05, "INCLINATION": 0.0076, "RA_OF_ASC_NODE": 108.7537, "ARG_OF_PERICENTER": 101.0744, "MEAN_ANOMALY": 95.0824, "EPHEMERIS_TYPE": 0, "CLASSIFICATION_TYPE": "U", "NORAD_CAT_ID": 31862, "ELEMENT_SET_NO": 999, "REV_AT_EPOCH": 4377, "BSTAR": 0, "MEAN_MOTION_DOT": -7.8e-07, "MEAN_MOTION_DDOT": 0}, "tle": {"line1": "1 31862U 07032A   25351.89154148 -.00000078  00000+0  00000+0 0  9992", "line2": "2 31862   0.0076 108.7537 0000343 101.0744  95.0824  1.00269363 43772"}}, "geometry": {"type": "Point", "coordinates": [89.80869246748289, -0.005799653440663775]}}, {"type": "Feature", "properties": {"norad_id": 32253, "name": "INTELSAT 11 (IS-11)", "group": "intelsat", "lat": -2.2435260558070538, "lon": 33.971496058739135, "alt_km": 36162.057043064924, "timestamp": "2025-12-18T07:01:54.255377+00:00", "meta": {"OBJECT_NAME": "INTELSAT 11 (IS-11)", "OBJECT_ID": "2007-044B", "EPOCH": "2025-12-17T19:25:45.490656", "MEAN_MOTION": 0.99051149, "ECCENTRICITY": 0.00085893, "INCLINATION": 3.0928, "RA_OF_ASC_NODE": 80.9208, "ARG_OF_PERICENTER": 167.8717, "MEAN_ANOMALY": 332.6994, "EPHEMERIS_TYPE": 0, "CLASSIFICATION_TYPE": "U", "NORAD_CAT_ID": 32253, "ELEMENT_SET_NO": 999, "REV_AT_EPOCH": 6665, "BSTAR": 0, "MEAN_MOTION_DOT": 1e-07, "MEAN_MOTION_DDOT": 0}, "tle": {"line1": "1 32253U 07044B   25351.80955429  .00000010  00000+0  00000+0 0  9997", "line2": "2 32253   3.0928  80.9208 0008589 167.8717 332.6994  0.99051149 66650"}}, "geometry": {"type": "Point", "coordinates": [33.971496058739135, -2.2435260558070538]}}, {"type": "Feature", "properties": {"norad_id": 32388, "name": "HORIZONS-2", "group": "intelsat", "lat": 1.2733482854288238, "lon": 118.7989104847734, "alt_km": 35803.31869671738, "timestamp": "2025-12-18T07:01:54.255389+00:00", "meta": {"OBJECT_NAME": "HORIZONS-2", "OBJECT_ID": "2007-063B", "EPOCH": "2025-12-17T12:58:32.058912", "MEAN_MOTION": 1.00272838, "ECCENTRICITY": 0.00045713, "INCLINATION": 2.1335, "RA_OF_ASC_NODE": 82.912, "ARG_OF_PERICENTER": 191.5368, "MEAN_ANOMALY": 292.8131, "EPHEMERIS_TYPE": 0, "CLASSIFICATION_TYPE": "U", "NORAD_CAT_ID": 32388, "ELEMENT_SET_NO": 999, "REV_AT_EPOCH": 6599, "BSTAR": 0, "MEAN_MOTION_DOT": -2.3e-06, "MEAN_MOTION_DDOT": 0}, "tle": {"line1": "1 32388U 07063B   25351.54064883 -.00000230  00000+0  00000+0 0  9998", "line2": "2 32388   2.1335  82.9120 0004571 191.5368 292.8131  1.00272838 65998"}}, "geometry": {"type": "Point", "coordinates": [118.7989104847734, 1.2733482854288238]}}, {"type": "Feature", "properties": {"norad_id": 32729, "name": "DIRECTV 11", "group": "intelsat", "lat": 0.008184186285269015, "lon": 93.40411203502414, "alt_km": 35790.53541729884, "timestamp": "2025-12-18T07:01:54.255401+00:00", "meta": {"OBJECT_NAME": "DIRECTV 11", "OBJECT_ID": "2008-013A", "EPOCH": "2025-12-17T21:24:49.087584", "MEAN_MOTION": 1.00260701, "ECCENTRICITY": 0.00010186, "INCLINATION": 0.0306, "RA_OF_ASC_NODE": 208.7035, "ARG_OF_PERICENTER": 352.6085, "MEAN_ANOMALY": 107.4644, "EPHEMERIS_TYPE": 0, "CLASSIFICATION_TYPE": "U", "NORAD_CAT_ID": 32729, "ELEMENT_SET_NO": 999, "REV_AT_EPOCH": 4377, "BSTAR": 0, "MEAN_MOTION_DOT": -9.9e-07, "MEAN_MOTION_DDOT": 0}, "tle": {"line1": "1 32729U 08013A   25351.89223481 -.00000099  00000+0  00000+0 0  9995", "line2": "2 32729   0.0306 208.7035 0001018 352.6085 107.4644  1.00260701 43772"}}, "geometry": {"type": "Point", "coordinates": [93.40411203502414, 0.008184186285269015]}}, {"type": "Feature", "properties": {"norad_id": 32951, "name": "GALAXY 18 (G-18)", "group": "intelsat", "lat": 0.03852853872504279, "lon": 69.63886066844685, "alt_km": 35796.764053494335, "timestamp": "2025-12-18T07:01:54.255413+00:00", "meta": {"OBJECT_NAME": "GALAXY 18 (G-18)", "OBJECT_ID": "2008-024A", "EPOCH": "2025-12-17T17:52:33.903840", "MEAN_MOTION": 1.00272998, "ECCENTRICITY": 0.00028423, "INCLINATION": 0.0183, "RA_OF_ASC_NODE": 15.09, "ARG_OF_PERICENTER": 257.9459, "MEAN_ANOMALY": 318.7241, "EPHEMERIS_TYPE": 0, "CLASSIFICATION_TYPE": "U", "NORAD_CAT_ID": 32951, "ELEMENT_SET_NO": 999, "REV_AT_EPOCH": 4403, "BSTAR": 0, "MEAN_MOTION_DOT": 5e-07, "MEAN_MOTION_DDOT": 0}, "tle": {"line1": "1 32951U 08024A   25351.74483685  .00000050  00000+0  00000+0 0  9998", "line2": "2 32951   0.0183  15.0900 0002842 257.9459 318.7241  1.00272998 44031"}}, "geometry": {"type": "Point", "coordinates": [69.63886066844685, 0.03852853872504279]}}]}